HAWK-11C                
1 62381U 24247E   26068.51221537  .00009223  00000+0  33290-3 0  9992
2 62381  45.0045 114.8762 0005900 329.7040  30.3502 15.28848020 67743
STARLINK-35148          
1 65844U 25221X   26068.44582890  .00030855  00000+0  10496-2 0  9993
2 65844  53.1599  89.6461 0001378  71.1227 288.9923 15.30198042 24699
